OBJECT_NAME,OBJECT_ID,EPOCH,MEAN_MOTION,ECCENTRICITY,INCLINATION,RA_OF_ASC_NODE,ARG_OF_PERICENTER,MEAN_ANOMALY,EPHEMERIS_TYPE,CLASSIFICATION_TYPE,NORAD_CAT_ID,ELEMENT_SET_NO,REV_AT_EPOCH,BSTAR,MEAN_MOTION_DOT,MEAN_MOTION_DDOT
ONEWEB-0395,2021-132G,2026-06-09T12:53:49.126560,13.11416098,.0001945,87.8890,22.5903,89.6405,270.4945,0,U,50475,999,21471,.11286403E-2,.413E-5,0
ONEWEB-0396,2021-132H,2026-06-09T12:05:20.075712,13.18684154,.00019557,87.9168,336.9836,87.9629,272.1727,0,U,50476,999,22062,.17697133E-3,.83E-6,0
ONEWEB-0397,2021-132J,2026-06-09T12:27:11.565504,13.18685161,.00019455,87.9168,336.9808,84.1121,276.0233,0,U,50477,999,22060,.18813905E-3,.87E-6,0
ONEWEB-0398,2021-132K,2026-06-09T08:27:39.990816,13.11420243,.00018346,87.8901,22.6173,93.9893,266.1445,0,U,50478,999,21458,-.48811378E-3,-.16E-5,0
ONEWEB-0399,2021-132L,2026-06-09T08:08:08.335968,13.11416547,.00022655,87.8901,22.6309,77.5220,282.6161,0,U,50479,999,21457,-.17622315E-2,-.612E-5,0
ONEWEB-0400,2021-132M,2026-06-09T11:55:37.959168,13.18685807,.00018651,87.9168,336.9746,96.4415,263.6930,0,U,50480,999,22059,.18377968E-4,.2E-6,0
ONEWEB-0401,2021-132N,2026-06-09T11:11:55.234464,13.18684775,.00016986,87.9170,336.9779,84.5553,275.5773,0,U,50481,999,22059,.13690274E-3,.67E-6,0
ONEWEB-0402,2021-132P,2026-06-09T12:07:47.079264,13.18685989,.00016783,87.9165,336.9596,76.1377,283.9942,0,U,50482,999,22062,.35488295E-3,.153E-5,0
ONEWEB-0403,2021-132Q,2026-06-09T12:44:11.158080,13.18684574,.0002001,87.9168,336.9789,90.4385,269.6977,0,U,50483,999,22058,.12279149E-3,.61E-6,0
ONEWEB-0404,2021-132R,2026-06-09T13:10:53.963616,13.11415272,.00021358,87.8896,22.5874,84.7596,275.3775,0,U,50484,999,21469,-.37815255E-4,-.1E-7,0
ONEWEB-0405,2021-132S,2026-06-09T13:03:37.806912,13.18686500,.00018684,87.9171,336.9605,105.2286,254.9053,0,U,50485,999,22098,.18600062E-4,.2E-6,0
ONEWEB-0406,2021-132T,2026-06-09T12:51:28.480320,13.18684752,.00023975,87.9163,336.9792,89.3277,270.8130,0,U,50486,999,22061,.20074589E-3,.92E-6,0
ONEWEB-0407,2021-132U,2026-06-09T12:41:46.276512,13.18684693,.00016215,87.9168,336.9724,91.8439,268.2879,0,U,50487,999,22055,.1400283E-3,.68E-6,0
ONEWEB-0409,2021-132V,2026-06-09T02:09:14.815584,13.11415679,.00020774,87.8900,22.6666,87.8673,272.2692,0,U,50488,999,21452,-.22716276E-3,-.68E-6,0
ONEWEB-0412,2021-132W,2026-06-09T12:24:45.563328,13.18684766,.00017304,87.9166,336.9832,82.2063,277.9266,0,U,50489,999,22064,.21599678E-3,.98E-6,0
ONEWEB-0413,2021-132X,2026-06-09T12:32:03.200064,13.18683283,.00015659,87.9157,336.9816,85.0357,275.0954,0,U,50490,999,22058,.10340895E-2,.421E-5,0
ONEWEB-0414,2021-132Y,2026-06-09T12:10:12.078336,13.18685159,.00018957,87.9167,336.9655,85.4294,274.7055,0,U,50491,999,22061,.22875781E-3,.103E-5,0
ONEWEB-0417,2021-132Z,2026-06-09T12:22:20.373312,13.18685273,.00020924,87.9158,336.9843,91.6037,268.5334,0,U,50492,999,22059,.18255344E-3,.85E-6,0
ONEWEB-0418,2021-132AA,2026-06-09T12:36:43.340832,13.18685407,.00021357,87.9170,336.9812,92.3505,267.7871,0,U,50493,999,22065,.92940987E-4,.5E-6,0
ONEWEB-0419,2021-132AB,2026-06-09T13:03:19.582560,13.18665309,.00020488,87.9170,336.9770,97.3194,262.8171,0,U,50494,999,22057,.44228196E-4,.3E-6,0
ONEWEB-0420,2021-132AC,2026-06-09T12:12:37.541376,13.18685915,.00016488,87.9159,336.9876,92.8003,267.3318,0,U,50495,999,22056,.29285371E-3,.128E-5,0
ONEWEB-0421,2021-132AD,2026-06-09T12:02:54.453696,13.18684555,.00019225,87.9163,336.9862,79.4553,280.6796,0,U,50496,999,22060,.25975949E-3,.115E-5,0
ONEWEB-0424,2021-132AE,2026-06-09T11:07:04.122624,13.18684845,.00019865,87.9165,336.9918,101.2974,258.8381,0,U,50497,999,22062,.22672509E-4,.22E-6,0
ONEWEB-0426,2021-132AF,2026-06-09T11:56:51.081216,13.18689060,.00024298,87.9167,336.9758,80.0206,280.1200,0,U,50498,999,22057,.14732967E-4,.19E-6,0
ONEWEB-0427,2021-132AG,2026-06-09T12:53:54.178368,13.18684846,.00020734,87.9169,336.9568,90.6382,269.4988,0,U,50499,999,22060,.17597502E-3,.82E-6,0
ONEWEB-0429,2021-132AH,2026-06-09T12:34:28.911072,13.18685503,.00017265,87.9161,336.9847,91.1680,268.9650,0,U,50500,999,22057,.12002104E-3,.6E-6,0
ONEWEB-0430,2021-132AJ,2026-06-09T12:17:29.016096,13.18686145,.00017076,87.9161,336.9852,98.2369,261.8956,0,U,50501,999,22061,.67357395E-4,.39E-6,0
ONEWEB-0432,2021-132AK,2026-06-09T14:00:04.000032,13.17459701,.00018091,87.9177,336.9447,101.4386,72.6108,0,U,50502,999,527,-.21518893E+0,-.82557E-3,0
ONEWEB-0440,2021-132AL,2026-06-09T12:46:36.933888,13.18684856,.00016569,87.9167,336.9767,81.7617,278.3703,0,U,50503,999,22056,.86407632E-4,.47E-6,0
ONEWEB-0450,2021-132AM,2026-06-09T12:37:06.916800,13.18685501,.00016541,87.9157,336.9840,93.2417,266.8905,0,U,50504,999,22059,.16086548E-3,.76E-6,0
