ONEWEB-0395             
1 50475U 21132G   26160.53737415  .00000413  00000+0  11286-2 0  9997
2 50475  87.8890  22.5903 0001945  89.6405 270.4945 13.11416098214715
ONEWEB-0396             
1 50476U 21132H   26160.50370458  .00000083  00000+0  17697-3 0  9991
2 50476  87.9168 336.9836 0001955  87.9629 272.1727 13.18684154220623
ONEWEB-0397             
1 50477U 21132J   26160.51888386  .00000087  00000+0  18814-3 0  9993
2 50477  87.9168 336.9808 0001945  84.1121 276.0233 13.18685161220600
ONEWEB-0398             
1 50478U 21132K   26160.35254619 -.00000160  00000+0 -48811-3 0  9996
2 50478  87.8901  22.6173 0001834  93.9893 266.1445 13.11420243214586
ONEWEB-0399             
1 50479U 21132L   26160.33898537 -.00000612  00000+0 -17622-2 0  9995
2 50479  87.8901  22.6309 0002265  77.5220 282.6161 13.11416547214578
ONEWEB-0400             
1 50480U 21132M   26160.49696712  .00000020  00000+0  18378-4 0  9997
2 50480  87.9168 336.9746 0001865  96.4415 263.6930 13.18685807220599
ONEWEB-0401             
1 50481U 21132N   26160.46661151  .00000067  00000+0  13690-3 0  9996
2 50481  87.9170 336.9779 0001698  84.5553 275.5773 13.18684775220594
ONEWEB-0402             
1 50482U 21132P   26160.50540601  .00000153  00000+0  35488-3 0  9993
2 50482  87.9165 336.9596 0001678  76.1377 283.9942 13.18685989220628
ONEWEB-0403             
1 50483U 21132Q   26160.53068470  .00000061  00000+0  12279-3 0  9997
2 50483  87.9168 336.9789 0002001  90.4385 269.6977 13.18684574220588
ONEWEB-0404             
1 50484U 21132R   26160.54923569 -.00000001  00000+0 -37815-4 0  9998
2 50484  87.8896  22.5874 0002135  84.7596 275.3775 13.11415272214692
ONEWEB-0405             
1 50485U 21132S   26160.54418758  .00000020  00000+0  18600-4 0  9998
2 50485  87.9171 336.9605 0001868 105.2286 254.9053 13.18686500220983
ONEWEB-0406             
1 50486U 21132T   26160.53574630  .00000092  00000+0  20075-3 0  9997
2 50486  87.9163 336.9792 0002397  89.3277 270.8130 13.18684752220612
ONEWEB-0407             
1 50487U 21132U   26160.52900783  .00000068  00000+0  14003-3 0  9996
2 50487  87.9168 336.9724 0001621  91.8439 268.2879 13.18684693220558
ONEWEB-0409             
1 50488U 21132V   26160.08975481 -.00000068  00000+0 -22716-3 0  9997
2 50488  87.8900  22.6666 0002077  87.8673 272.2692 13.11415679214524
ONEWEB-0412             
1 50489U 21132W   26160.51719402  .00000098  00000+0  21600-3 0  9997
2 50489  87.9166 336.9832 0001730  82.2063 277.9266 13.18684766220644
ONEWEB-0413             
1 50490U 21132X   26160.52225926  .00000421  00000+0  10341-2 0  9992
2 50490  87.9157 336.9816 0001565  85.0357 275.0954 13.18683283220580
ONEWEB-0414             
1 50491U 21132Y   26160.50708424  .00000103  00000+0  22876-3 0  9994
2 50491  87.9167 336.9655 0001895  85.4294 274.7055 13.18685159220619
ONEWEB-0417             
1 50492U 21132Z   26160.51551358  .00000085  00000+0  18255-3 0  9993
2 50492  87.9158 336.9843 0002092  91.6037 268.5334 13.18685273220598
ONEWEB-0418             
1 50493U 21132AA  26160.52550163  .00000050  00000+0  92941-4 0  9995
2 50493  87.9170 336.9812 0002135  92.3505 267.7871 13.18685407220658
ONEWEB-0419             
1 50494U 21132AB  26160.54397665  .00000030  00000+0  44228-4 0  9997
2 50494  87.9170 336.9770 0002048  97.3194 262.8171 13.18665309220573
ONEWEB-0420             
1 50495U 21132AC  26160.50876784  .00000128  00000+0  29285-3 0  9991
2 50495  87.9159 336.9876 0001648  92.8003 267.3318 13.18685915220569
ONEWEB-0421             
1 50496U 21132AD  26160.50201914  .00000115  00000+0  25976-3 0  9998
2 50496  87.9163 336.9862 0001922  79.4553 280.6796 13.18684555220608
ONEWEB-0424             
1 50497U 21132AE  26160.46324216  .00000022  00000+0  22673-4 0  9994
2 50497  87.9165 336.9918 0001986 101.2974 258.8381 13.18684845220625
ONEWEB-0426             
1 50498U 21132AF  26160.49781344  .00000019  00000+0  14733-4 0  9991
2 50498  87.9167 336.9758 0002429  80.0206 280.1200 13.18689060220571
ONEWEB-0427             
1 50499U 21132AG  26160.53743262  .00000082  00000+0  17598-3 0  9995
2 50499  87.9169 336.9568 0002073  90.6382 269.4988 13.18684846220604
ONEWEB-0429             
1 50500U 21132AH  26160.52394573  .00000060  00000+0  12002-3 0  9995
2 50500  87.9161 336.9847 0001726  91.1680 268.9650 13.18685503220577
ONEWEB-0430             
1 50501U 21132AJ  26160.51214139  .00000039  00000+0  67357-4 0  9994
2 50501  87.9161 336.9852 0001707  98.2369 261.8956 13.18686145220614
ONEWEB-0432             
1 50502U 21132AK  26160.58337963 -.00082557  00000+0 -21519+0 0  9995
2 50502  87.9177 336.9447 0001809 101.4386  72.6108 13.17459701  5276
ONEWEB-0440             
1 50503U 21132AL  26160.53237192  .00000047  00000+0  86408-4 0  9999
2 50503  87.9167 336.9767 0001656  81.7617 278.3703 13.18684856220567
ONEWEB-0450             
1 50504U 21132AM  26160.52577450  .00000076  00000+0  16087-3 0  9990
2 50504  87.9157 336.9840 0001654  93.2417 266.8905 13.18685501220590
